STARLINK-32507          
1 62132U 24222U   26068.55793403  .00033261  00000+0  12123-2 0  9999
2 62132  43.0013 136.5179 0001550 284.6210  75.4470 15.27593585 72582
FLOCK 4G-29             
1 62642U 25009AK  26068.81464037  .00011147  00000+0  41831-3 0  9994
2 62642  97.4058 151.3683 0001366 288.0502  72.0588 15.27382318 63721
